[{"OBJECT_NAME":"COSMOS 1408 DEB","OBJECT_ID":"1982-092RU","EPOCH":"2026-03-06T04:51:22.119840","MEAN_MOTION":15.46729103,"ECCENTRICITY":0.0013587,"INCLINATION":82.5662,"RA_OF_ASC_NODE":332.9003,"ARG_OF_PERICENTER":270.8036,"MEAN_ANOMALY":89.1657,"EPHEMERIS_TYPE":0,"CLASSIFICATION_TYPE":"U","NORAD_CAT_ID":50032,"ELEMENT_SET_NO":999,"REV_AT_EPOCH":23893,"BSTAR":0.00012758835,"MEAN_MOTION_DOT":6.441e-5,"MEAN_MOTION_DDOT":0},{"OBJECT_NAME":"COSMOS 1408 DEB","OBJECT_ID":"1982-092SW","EPOCH":"2026-03-06T04:42:19.462176","MEAN_MOTION":15.70889234,"ECCENTRICITY":0.00148553,"INCLINATION":82.6135,"RA_OF_ASC_NODE":341.5706,"ARG_OF_PERICENTER":135.766,"MEAN_ANOMALY":224.4793,"EPHEMERIS_TYPE":0,"CLASSIFICATION_TYPE":"U","NORAD_CAT_ID":50058,"ELEMENT_SET_NO":999,"REV_AT_EPOCH":24111,"BSTAR":0.0003880124,"MEAN_MOTION_DOT":0.00048832,"MEAN_MOTION_DDOT":0},{"OBJECT_NAME":"COSMOS 1408 DEB","OBJECT_ID":"1982-092ADS","EPOCH":"2026-03-06T04:14:15.288576","MEAN_MOTION":15.33000415,"ECCENTRICITY":0.01255168,"INCLINATION":82.1955,"RA_OF_ASC_NODE":128.4021,"ARG_OF_PERICENTER":266.7679,"MEAN_ANOMALY":91.9196,"EPHEMERIS_TYPE":0,"CLASSIFICATION_TYPE":"U","NORAD_CAT_ID":50404,"ELEMENT_SET_NO":999,"REV_AT_EPOCH":22463,"BSTAR":0.0033222695,"MEAN_MOTION_DOT":0.00138248,"MEAN_MOTION_DDOT":0},{"OBJECT_NAME":"COSMOS 1408 DEB","OBJECT_ID":"1982-092ALR","EPOCH":"2026-03-06T05:39:57.997152","MEAN_MOTION":15.62149783,"ECCENTRICITY":0.00231747,"INCLINATION":82.5722,"RA_OF_ASC_NODE":346.908,"ARG_OF_PERICENTER":196.237,"MEAN_ANOMALY":163.8149,"EPHEMERIS_TYPE":0,"CLASSIFICATION_TYPE":"U","NORAD_CAT_ID":50621,"ELEMENT_SET_NO":999,"REV_AT_EPOCH":23551,"BSTAR":0.00041668889,"MEAN_MOTION_DOT":0.00037167,"MEAN_MOTION_DDOT":0}]
